[{"OBJECT_NAME":"HEAD-3D","OBJECT_ID":"2023-121D","EPOCH":"2026-03-09T23:30:37.088352","MEAN_MOTION":14.62739417,"ECCENTRICITY":0.00055409,"INCLINATION":45.0054,"RA_OF_ASC_NODE":64.1503,"ARG_OF_PERICENTER":112.6347,"MEAN_ANOMALY":247.5097,"EPHEMERIS_TYPE":0,"CLASSIFICATION_TYPE":"U","NORAD_CAT_ID":57629,"ELEMENT_SET_NO":999,"REV_AT_EPOCH":13727,"BSTAR":0.00023960943,"MEAN_MOTION_DOT":1.072e-5,"MEAN_MOTION_DDOT":0},{"OBJECT_NAME":"UNKNOWN","OBJECT_ID":"","EPOCH":"2026-03-09T06:46:15.504960","MEAN_MOTION":14.3604467,"ECCENTRICITY":0.0131941,"INCLINATION":73.2821,"RA_OF_ASC_NODE":15.628,"ARG_OF_PERICENTER":141.5737,"MEAN_ANOMALY":8.6286,"EPHEMERIS_TYPE":0,"CLASSIFICATION_TYPE":"U","NORAD_CAT_ID":82524,"ELEMENT_SET_NO":999,"REV_AT_EPOCH":58945,"BSTAR":0.0010101,"MEAN_MOTION_DOT":3.213e-5,"MEAN_MOTION_DDOT":0}]
